ADRAS-J                 
1 58992U 24034A   24212.16867026  .00003663  00000+0  33961-3 0  9995
2 58992  98.2156 187.1595 0042054 267.2203  92.4202 14.94487062 24289
